[{"OBJECT_NAME":"STARLINK-3751","OBJECT_ID":"2022-041AE","EPOCH":"2026-03-09T07:34:11.395488","MEAN_MOTION":15.08830974,"ECCENTRICITY":0.00011576,"INCLINATION":53.2163,"RA_OF_ASC_NODE":100.8007,"ARG_OF_PERICENTER":87.7054,"MEAN_ANOMALY":272.4071,"EPHEMERIS_TYPE":0,"CLASSIFICATION_TYPE":"U","NORAD_CAT_ID":52289,"ELEMENT_SET_NO":999,"REV_AT_EPOCH":21444,"BSTAR":4.601013e-5,"MEAN_MOTION_DOT":4.44e-6,"MEAN_MOTION_DDOT":0},{"OBJECT_NAME":"FENGYUN 1C DEB","OBJECT_ID":"1999-025CSF","EPOCH":"2026-03-06T14:46:48.189792","MEAN_MOTION":14.83626867,"ECCENTRICITY":0.01812709,"INCLINATION":98.4497,"RA_OF_ASC_NODE":202.5264,"ARG_OF_PERICENTER":124.6228,"MEAN_ANOMALY":237.2229,"EPHEMERIS_TYPE":0,"CLASSIFICATION_TYPE":"U","NORAD_CAT_ID":32137,"ELEMENT_SET_NO":999,"REV_AT_EPOCH":67973,"BSTAR":0.0017939615,"MEAN_MOTION_DOT":0.00019795,"MEAN_MOTION_DDOT":0}]
